[{"OBJECT_NAME":"UTMN 2 (RS27S)","OBJECT_ID":"2023-091AP","EPOCH":"2026-03-09T23:09:07.917408","MEAN_MOTION":15.29495965,"ECCENTRICITY":0.00097379,"INCLINATION":97.5194,"RA_OF_ASC_NODE":134.949,"ARG_OF_PERICENTER":76.0788,"MEAN_ANOMALY":284.1534,"EPHEMERIS_TYPE":0,"CLASSIFICATION_TYPE":"U","NORAD_CAT_ID":57203,"ELEMENT_SET_NO":999,"REV_AT_EPOCH":14936,"BSTAR":0.00056135701,"MEAN_MOTION_DOT":0.00016013,"MEAN_MOTION_DDOT":0},{"OBJECT_NAME":"STARLINK-33683","OBJECT_ID":"2025-076E","EPOCH":"2026-03-09T01:56:45.960864","MEAN_MOTION":15.27589005,"ECCENTRICITY":0.00021679,"INCLINATION":43.0035,"RA_OF_ASC_NODE":325.4548,"ARG_OF_PERICENTER":261.0365,"MEAN_ANOMALY":99.0241,"EPHEMERIS_TYPE":0,"CLASSIFICATION_TYPE":"U","NORAD_CAT_ID":63573,"ELEMENT_SET_NO":999,"REV_AT_EPOCH":5173,"BSTAR":0.0010565588,"MEAN_MOTION_DOT":0.00028935,"MEAN_MOTION_DDOT":0}]
